{
  "norad_id": 62845,
  "name": "STARLINK-32807",
  "history": [
    {
      "epoch": "2026-03-28T16:42:21.987648",
      "apogee_km": 484.2193857844213,
      "perigee_km": 481.7880719557388,
      "latitude_deg": -1.9401472245368605,
      "longitude_deg": 171.3244307199493,
      "semi_major_axis_km": 6861.140728870079,
      "eccentricity": 0.00017718,
      "inclination_deg": 42.9999,
      "raan_deg": 334.2039,
      "arg_perigee_deg": 275.3718,
      "mean_anomaly_deg": 84.6932,
      "mean_motion_rev_day": 15.27595151
    }
  ]
}